{
  "type": "FeatureCollection",
  "features": [
    {
      "type": "Feature",
      "properties": {
        "norad_id": 38833,
        "name": "GPS BIIF-3  (PRN 24)",
        "group": "gps-ops",
        "lat": -53.3502893465768,
        "lon": 54.47319276251242,
        "alt_km": 20619.795811173903,
        "timestamp": "2025-12-17T04:57:44.626493+00:00",
        "meta_object_name": "GPS BIIF-3  (PRN 24)",
        "meta_object_id": "2012-053A",
        "meta_epoch": "2025-12-15T20:13:20.824032",
        "meta_mean_motion": 2.00565066,
        "meta_eccentricity": 0.01759247,
        "meta_inclination": 53.5583,
        "meta_ra_of_asc_node": 151.1115,
        "meta_arg_of_pericenter": 64.0399,
        "meta_mean_anomaly": 297.7616,
        "meta_ephemeris_type": 0,
        "meta_classification_type": "U",
        "meta_norad_cat_id": 38833,
        "meta_element_set_no": 999,
        "meta_rev_at_epoch": 9576,
        "meta_bstar": 0,
        "meta_mean_motion_dot": 8e-07,
        "meta_mean_motion_ddot": 0,
        "tle_line1": "1 38833U 12053A   25349.84260213  .00000080  00000+0  00000+0 0  9991",
        "tle_line2": "2 38833  53.5583 151.1115 0175924  64.0399 297.7616  2.00565066 95765"
      },
      "geometry": {
        "type": "Point",
        "coordinates": [
          54.47319276251242,
          -53.3502893465768
        ]
      }
    },
    {
      "type": "Feature",
      "properties": {
        "norad_id": 39166,
        "name": "GPS BIIF-4  (PRN 27)",
        "group": "gps-ops",
        "lat": 2.6560316102791686,
        "lon": -81.74477866639366,
        "alt_km": 19921.9473091333,
        "timestamp": "2025-12-17T04:57:44.626503+00:00",
        "meta_object_name": "GPS BIIF-4  (PRN 27)",
        "meta_object_id": "2013-023A",
        "meta_epoch": "2025-12-15T04:59:33.811872",
        "meta_mean_motion": 2.00564736,
        "meta_eccentricity": 0.01378529,
        "meta_inclination": 54.65,
        "meta_ra_of_asc_node": 276.4679,
        "meta_arg_of_pericenter": 48.4851,
        "meta_mean_anomaly": 312.7012,
        "meta_ephemeris_type": 0,
        "meta_classification_type": "U",
        "meta_norad_cat_id": 39166,
        "meta_element_set_no": 999,
        "meta_rev_at_epoch": 9219,
        "meta_bstar": 0,
        "meta_mean_motion_dot": -6.8e-07,
        "meta_mean_motion_ddot": 0,
        "tle_line1": "1 39166U 13023A   25349.20803023 -.00000068  00000+0  00000+0 0  9998",
        "tle_line2": "2 39166  54.6500 276.4679 0137852  48.4851 312.7012  2.00564736 92194"
      },
      "geometry": {
        "type": "Point",
        "coordinates": [
          -81.74477866639366,
          2.6560316102791686
        ]
      }
    },
    {
      "type": "Feature",
      "properties": {
        "norad_id": 39533,
        "name": "GPS BIIF-5  (PRN 30)",
        "group": "gps-ops",
        "lat": 6.130612170248555,
        "lon": 161.27488938276994,
        "alt_km": 20343.732152395358,
        "timestamp": "2025-12-17T04:57:44.626513+00:00",
        "meta_object_name": "GPS BIIF-5  (PRN 30)",
        "meta_object_id": "2014-008A",
        "meta_epoch": "2025-12-16T04:46:33.160224",
        "meta_mean_motion": 2.00574644,
        "meta_eccentricity": 0.00793151,
        "meta_inclination": 53.6318,
        "meta_ra_of_asc_node": 156.7835,
        "meta_arg_of_pericenter": 226.5644,
        "meta_mean_anomaly": 132.7818,
        "meta_ephemeris_type": 0,
        "meta_classification_type": "U",
        "meta_norad_cat_id": 39533,
        "meta_element_set_no": 999,
        "meta_rev_at_epoch": 8601,
        "meta_bstar": 0,
        "meta_mean_motion_dot": 8.7e-07,
        "meta_mean_motion_ddot": 0,
        "tle_line1": "1 39533U 14008A   25350.19899491  .00000087  00000+0  00000+0 0  9994",
        "tle_line2": "2 39533  53.6318 156.7835 0079315 226.5644 132.7818  2.00574644 86017"
      },
      "geometry": {
        "type": "Point",
        "coordinates": [
          161.27488938276994,
          6.130612170248555
        ]
      }
    },
    {
      "type": "Feature",
      "properties": {
        "norad_id": 39741,
        "name": "GPS BIIF-6  (PRN 06)",
        "group": "gps-ops",
        "lat": 14.561889492322136,
        "lon": 148.7187404793851,
        "alt_km": 20276.29115328345,
        "timestamp": "2025-12-17T04:57:44.626523+00:00",
        "meta_object_name": "GPS BIIF-6  (PRN 06)",
        "meta_object_id": "2014-026A",
        "meta_epoch": "2025-12-15T23:36:56.796480",
        "meta_mean_motion": 2.00561228,
        "meta_eccentricity": 0.00392671,
        "meta_inclination": 56.5823,
        "meta_ra_of_asc_node": 338.6501,
        "meta_arg_of_pericenter": 318.8752,
        "meta_mean_anomaly": 40.8399,
        "meta_ephemeris_type": 0,
        "meta_classification_type": "U",
        "meta_norad_cat_id": 39741,
        "meta_element_set_no": 999,
        "meta_rev_at_epoch": 8486,
        "meta_bstar": 0,
        "meta_mean_motion_dot": -8.7e-07,
        "meta_mean_motion_ddot": 0,
        "tle_line1": "1 39741U 14026A   25349.98399070 -.00000087  00000+0  00000+0 0  9999",
        "tle_line2": "2 39741  56.5823 338.6501 0039267 318.8752  40.8399  2.00561228 84867"
      },
      "geometry": {
        "type": "Point",
        "coordinates": [
          148.7187404793851,
          14.561889492322136
        ]
      }
    },
    {
      "type": "Feature",
      "properties": {
        "norad_id": 40105,
        "name": "GPS BIIF-7  (PRN 09)",
        "group": "gps-ops",
        "lat": 53.980678774968226,
        "lon": -156.88278884741155,
        "alt_km": 20093.634750400844,
        "timestamp": "2025-12-17T04:57:44.626533+00:00",
        "meta_object_name": "GPS BIIF-7  (PRN 09)",
        "meta_object_id": "2014-045A",
        "meta_epoch": "2025-12-15T01:46:50.034144",
        "meta_mean_motion": 2.00572752,
        "meta_eccentricity": 0.00326343,
        "meta_inclination": 55.2306,
        "meta_ra_of_asc_node": 95.8057,
        "meta_arg_of_pericenter": 119.9544,
        "meta_mean_anomaly": 240.3532,
        "meta_ephemeris_type": 0,
        "meta_classification_type": "U",
        "meta_norad_cat_id": 40105,
        "meta_element_set_no": 999,
        "meta_rev_at_epoch": 8238,
        "meta_bstar": 0,
        "meta_mean_motion_dot": -3.6e-07,
        "meta_mean_motion_ddot": 0,
        "tle_line1": "1 40105U 14045A   25349.07419021 -.00000036  00000+0  00000+0 0  9999",
        "tle_line2": "2 40105  55.2306  95.8057 0032634 119.9544 240.3532  2.00572752 82388"
      },
      "geometry": {
        "type": "Point",
        "coordinates": [
          -156.88278884741155,
          53.980678774968226
        ]
      }
    },
    {
      "type": "Feature",
      "properties": {
        "norad_id": 40294,
        "name": "GPS BIIF-8  (PRN 03)",
        "group": "gps-ops",
        "lat": -7.727290537335714,
        "lon": -136.92599875351237,
        "alt_km": 20263.93742110809,
        "timestamp": "2025-12-17T04:57:44.626544+00:00",
        "meta_object_name": "GPS BIIF-8  (PRN 03)",
        "meta_object_id": "2014-068A",
        "meta_epoch": "2025-12-16T10:44:59.348832",
        "meta_mean_motion": 2.00565206,
        "meta_eccentricity": 0.00607873,
        "meta_inclination": 56.8606,
        "meta_ra_of_asc_node": 38.0026,
        "meta_arg_of_pericenter": 69.1046,
        "meta_mean_anomaly": 291.6035,
        "meta_ephemeris_type": 0,
        "meta_classification_type": "U",
        "meta_norad_cat_id": 40294,
        "meta_element_set_no": 999,
        "meta_rev_at_epoch": 8154,
        "meta_bstar": 0,
        "meta_mean_motion_dot": -8.2e-07,
        "meta_mean_motion_ddot": 0,
        "tle_line1": "1 40294U 14068A   25350.44790913 -.00000082  00000+0  00000+0 0  9999",
        "tle_line2": "2 40294  56.8606  38.0026 0060787  69.1046 291.6035  2.00565206 81545"
      },
      "geometry": {
        "type": "Point",
        "coordinates": [
          -136.92599875351237,
          -7.727290537335714
        ]
      }
    },
    {
      "type": "Feature",
      "properties": {
        "norad_id": 40534,
        "name": "GPS BIIF-9  (PRN 26)",
        "group": "gps-ops",
        "lat": 52.78268055334917,
        "lon": -48.47176712370809,
        "alt_km": 20019.849906610638,
        "timestamp": "2025-12-17T04:57:44.626554+00:00",
        "meta_object_name": "GPS BIIF-9  (PRN 26)",
        "meta_object_id": "2015-013A",
        "meta_epoch": "2025-12-15T13:56:13.399296",
        "meta_mean_motion": 2.00562492,
        "meta_eccentricity": 0.01071717,
        "meta_inclination": 53.1973,
        "meta_ra_of_asc_node": 211.7725,
        "meta_arg_of_pericenter": 38.5497,
        "meta_mean_anomaly": 322.2983,
        "meta_ephemeris_type": 0,
        "meta_classification_type": "U",
        "meta_norad_cat_id": 40534,
        "meta_element_set_no": 999,
        "meta_rev_at_epoch": 7814,
        "meta_bstar": 0,
        "meta_mean_motion_dot": 7.3e-07,
        "meta_mean_motion_ddot": 0,
        "tle_line1": "1 40534U 15013A   25349.58071064  .00000073  00000+0  00000+0 0  9998",
        "tle_line2": "2 40534  53.1973 211.7725 0107171  38.5497 322.2983  2.00562492 78143"
      },
      "geometry": {
        "type": "Point",
        "coordinates": [
          -48.47176712370809,
          52.78268055334917
        ]
      }
    }
  ]
}